{"fetched_at":"2026-07-17T17:38:22.296Z","source":"https://celestrak.org/NORAD/elements/gp.php?NAME=JILIN&FORMAT=JSON","constellation":"jilin-1-gaofen","records":[{"OBJECT_NAME":"JILIN-1 GAOFEN 03D51","OBJECT_ID":"2022-155B","EPOCH":"2026-07-17T07:17:33.396000","CLASSIFICATION_TYPE":"U","MEAN_MOTION":15.65023694,"ECCENTRICITY":0.00044938,"INCLINATION":97.6265,"RA_OF_ASC_NODE":345.4981,"ARG_OF_PERICENTER":223.7935,"MEAN_ANOMALY":136.2968,"EPHEMERIS_TYPE":0,"NORAD_CAT_ID":54252,"ELEMENT_SET_NO":999,"REV_AT_EPOCH":20445,"BSTAR":0.00035994939,"MEAN_MOTION_DOT":0.00035309,"MEAN_MOTION_DDOT":0},{"OBJECT_NAME":"JILIN-1 GAOFEN 03D53","OBJECT_ID":"2022-155C","EPOCH":"2026-07-17T05:34:15.292416","CLASSIFICATION_TYPE":"U","MEAN_MOTION":15.54509079,"ECCENTRICITY":0.00049422,"INCLINATION":97.6256,"RA_OF_ASC_NODE":340.5881,"ARG_OF_PERICENTER":242.2377,"MEAN_ANOMALY":117.8375,"EPHEMERIS_TYPE":0,"NORAD_CAT_ID":54253,"ELEMENT_SET_NO":999,"REV_AT_EPOCH":20415,"BSTAR":0.0003514381,"MEAN_MOTION_DOT":0.00023081,"MEAN_MOTION_DDOT":0},{"OBJECT_NAME":"JILIN-1 GAOFEN 03D52","OBJECT_ID":"2022-155E","EPOCH":"2026-07-17T07:06:12.956256","CLASSIFICATION_TYPE":"U","MEAN_MOTION":15.62172211,"ECCENTRICITY":0.00038689,"INCLINATION":97.624,"RA_OF_ASC_NODE":343.6902,"ARG_OF_PERICENTER":238.2768,"MEAN_ANOMALY":121.8112,"EPHEMERIS_TYPE":0,"NORAD_CAT_ID":54255,"ELEMENT_SET_NO":999,"REV_AT_EPOCH":20440,"BSTAR":0.00033738007,"MEAN_MOTION_DOT":0.00029565,"MEAN_MOTION_DDOT":0},{"OBJECT_NAME":"JILIN-1 GAOFEN 03D50","OBJECT_ID":"2022-167J","EPOCH":"2026-07-17T07:32:46.264704","CLASSIFICATION_TYPE":"U","MEAN_MOTION":15.35087497,"ECCENTRICITY":0.00050202,"INCLINATION":97.6857,"RA_OF_ASC_NODE":7.4053,"ARG_OF_PERICENTER":14.5893,"MEAN_ANOMALY":345.5493,"EPHEMERIS_TYPE":0,"NORAD_CAT_ID":54690,"ELEMENT_SET_NO":999,"REV_AT_EPOCH":19997,"BSTAR":0.00017413635,"MEAN_MOTION_DOT":0.00005844,"MEAN_MOTION_DDOT":0},{"OBJECT_NAME":"JILIN-1 GAOFEN 03D47","OBJECT_ID":"2022-167L","EPOCH":"2026-07-17T07:39:48.396096","CLASSIFICATION_TYPE":"U","MEAN_MOTION":15.34368953,"ECCENTRICITY":0.00076016,"INCLINATION":97.6954,"RA_OF_ASC_NODE":9.1488,"ARG_OF_PERICENTER":22.4901,"MEAN_ANOMALY":337.6673,"EPHEMERIS_TYPE":0,"NORAD_CAT_ID":54692,"ELEMENT_SET_NO":999,"REV_AT_EPOCH":19996,"BSTAR":0.00017855293,"MEAN_MOTION_DOT":0.00005861,"MEAN_MOTION_DDOT":0},{"OBJECT_NAME":"JILIN-1 GAOFEN 03D49","OBJECT_ID":"2022-167N","EPOCH":"2026-07-17T07:54:57.924576","CLASSIFICATION_TYPE":"U","MEAN_MOTION":15.38072269,"ECCENTRICITY":0.00058722,"INCLINATION":97.6831,"RA_OF_ASC_NODE":9.8255,"ARG_OF_PERICENTER":42.8279,"MEAN_ANOMALY":317.3421,"EPHEMERIS_TYPE":0,"NORAD_CAT_ID":54694,"ELEMENT_SET_NO":999,"REV_AT_EPOCH":20012,"BSTAR":0.000181066,"MEAN_MOTION_DOT":0.00006698,"MEAN_MOTION_DDOT":0},{"OBJECT_NAME":"JILIN-1 GAOFEN 03D48","OBJECT_ID":"2022-167P","EPOCH":"2026-07-17T07:20:34.636416","CLASSIFICATION_TYPE":"U","MEAN_MOTION":15.35819643,"ECCENTRICITY":0.00062571,"INCLINATION":97.6903,"RA_OF_ASC_NODE":9.1211,"ARG_OF_PERICENTER":23.3091,"MEAN_ANOMALY":336.8435,"EPHEMERIS_TYPE":0,"NORAD_CAT_ID":54695,"ELEMENT_SET_NO":999,"REV_AT_EPOCH":20001,"BSTAR":0.00017856821,"MEAN_MOTION_DOT":0.00006139,"MEAN_MOTION_DDOT":0},{"OBJECT_NAME":"JILIN GAOFEN OBJECT A","OBJECT_ID":"2026-080A","EPOCH":"2026-07-16T15:48:38.759616","CLASSIFICATION_TYPE":"U","MEAN_MOTION":15.09207006,"ECCENTRICITY":0.00110928,"INCLINATION":97.6611,"RA_OF_ASC_NODE":273.1361,"ARG_OF_PERICENTER":330.0407,"MEAN_ANOMALY":30.0185,"EPHEMERIS_TYPE":0,"NORAD_CAT_ID":68691,"ELEMENT_SET_NO":999,"REV_AT_EPOCH":1410,"BSTAR":0.00013342531,"MEAN_MOTION_DOT":0.00002058,"MEAN_MOTION_DDOT":0},{"OBJECT_NAME":"JILIN GAOFEN OBJECT B","OBJECT_ID":"2026-080B","EPOCH":"2026-07-17T05:42:35.648640","CLASSIFICATION_TYPE":"U","MEAN_MOTION":15.08909956,"ECCENTRICITY":0.00156965,"INCLINATION":97.6585,"RA_OF_ASC_NODE":273.7264,"ARG_OF_PERICENTER":305.8074,"MEAN_ANOMALY":54.1695,"EPHEMERIS_TYPE":0,"NORAD_CAT_ID":68692,"ELEMENT_SET_NO":999,"REV_AT_EPOCH":1419,"BSTAR":0.00015688118,"MEAN_MOTION_DOT":0.00002415,"MEAN_MOTION_DDOT":0},{"OBJECT_NAME":"JILIN GAOFEN OBJECT C","OBJECT_ID":"2026-080C","EPOCH":"2026-07-16T12:36:15.166656","CLASSIFICATION_TYPE":"U","MEAN_MOTION":15.08905559,"ECCENTRICITY":0.00132036,"INCLINATION":97.6595,"RA_OF_ASC_NODE":272.9856,"ARG_OF_PERICENTER":310.6516,"MEAN_ANOMALY":49.3564,"EPHEMERIS_TYPE":0,"NORAD_CAT_ID":68693,"ELEMENT_SET_NO":999,"REV_AT_EPOCH":1408,"BSTAR":0.00013504683,"MEAN_MOTION_DOT":0.00002068,"MEAN_MOTION_DDOT":0},{"OBJECT_NAME":"JILIN GAOFEN OBJECT D","OBJECT_ID":"2026-080D","EPOCH":"2026-07-17T07:19:09.776064","CLASSIFICATION_TYPE":"U","MEAN_MOTION":15.08969375,"ECCENTRICITY":0.00163704,"INCLINATION":97.6648,"RA_OF_ASC_NODE":273.8691,"ARG_OF_PERICENTER":317.5185,"MEAN_ANOMALY":42.4775,"EPHEMERIS_TYPE":0,"NORAD_CAT_ID":68694,"ELEMENT_SET_NO":999,"REV_AT_EPOCH":1418,"BSTAR":0.00015841711,"MEAN_MOTION_DOT":0.00002444,"MEAN_MOTION_DDOT":0},{"OBJECT_NAME":"JILIN GAOFEN OBJECT E","OBJECT_ID":"2026-080E","EPOCH":"2026-07-17T06:52:52.330656","CLASSIFICATION_TYPE":"U","MEAN_MOTION":15.08931585,"ECCENTRICITY":0.00137046,"INCLINATION":97.6632,"RA_OF_ASC_NODE":273.8706,"ARG_OF_PERICENTER":328.2762,"MEAN_ANOMALY":31.764,"EPHEMERIS_TYPE":0,"NORAD_CAT_ID":68695,"ELEMENT_SET_NO":999,"REV_AT_EPOCH":1416,"BSTAR":0.00017920965,"MEAN_MOTION_DOT":0.00002768,"MEAN_MOTION_DDOT":0},{"OBJECT_NAME":"JILIN GAOFEN OBJECT F","OBJECT_ID":"2026-080F","EPOCH":"2026-07-17T06:51:29.689056","CLASSIFICATION_TYPE":"U","MEAN_MOTION":15.08915375,"ECCENTRICITY":0.00123732,"INCLINATION":97.6604,"RA_OF_ASC_NODE":273.8372,"ARG_OF_PERICENTER":331.1501,"MEAN_ANOMALY":28.9042,"EPHEMERIS_TYPE":0,"NORAD_CAT_ID":68696,"ELEMENT_SET_NO":999,"REV_AT_EPOCH":1416,"BSTAR":0.0001724461,"MEAN_MOTION_DOT":0.00002659,"MEAN_MOTION_DDOT":0},{"OBJECT_NAME":"JILIN GAOFEN OBJECT G","OBJECT_ID":"2026-080G","EPOCH":"2026-07-17T08:06:57.403296","CLASSIFICATION_TYPE":"U","MEAN_MOTION":15.08908829,"ECCENTRICITY":0.00144925,"INCLINATION":97.6651,"RA_OF_ASC_NODE":273.9751,"ARG_OF_PERICENTER":327.5461,"MEAN_ANOMALY":32.4875,"EPHEMERIS_TYPE":0,"NORAD_CAT_ID":68697,"ELEMENT_SET_NO":999,"REV_AT_EPOCH":1417,"BSTAR":0.00015673518,"MEAN_MOTION_DOT":0.00002412,"MEAN_MOTION_DDOT":0},{"OBJECT_NAME":"JILIN GAOFEN OBJECT H","OBJECT_ID":"2026-080H","EPOCH":"2026-07-16T14:33:34.574688","CLASSIFICATION_TYPE":"U","MEAN_MOTION":15.08933633,"ECCENTRICITY":0.00149471,"INCLINATION":97.6646,"RA_OF_ASC_NODE":273.235,"ARG_OF_PERICENTER":332.1698,"MEAN_ANOMALY":27.8729,"EPHEMERIS_TYPE":0,"NORAD_CAT_ID":68698,"ELEMENT_SET_NO":999,"REV_AT_EPOCH":1406,"BSTAR":0.00015644447,"MEAN_MOTION_DOT":0.00002409,"MEAN_MOTION_DDOT":0}]}
