JILIN-1 GAOFEN 03D51    
1 54252U 22155B   26198.30385875  .00035309  00000+0  35995-3 0  9991
2 54252  97.6265 345.4981 0004493 223.7935 136.2968 15.65023694204451
JILIN-1 GAOFEN 03D53    
1 54253U 22155C   26198.23212144  .00023081  00000+0  35144-3 0  9992
2 54253  97.6256 340.5881 0004942 242.2377 117.8375 15.54509079204150
JILIN-1 GAOFEN 03D52    
1 54255U 22155E   26198.29598329  .00029565  00000+0  33738-3 0  9992
2 54255  97.6240 343.6902 0003868 238.2768 121.8112 15.62172211204403
JILIN-1 GAOFEN 03D50    
1 54690U 22167J   26198.31442436  .00005844  00000+0  17414-3 0  9995
2 54690  97.6857   7.4053 0005020  14.5893 345.5493 15.35087497199971
JILIN-1 GAOFEN 03D47    
1 54692U 22167L   26198.31931014  .00005861  00000+0  17855-3 0  9990
2 54692  97.6954   9.1488 0007601  22.4901 337.6673 15.34368953199966
JILIN-1 GAOFEN 03D49    
1 54694U 22167N   26198.32983709  .00006698  00000+0  18107-3 0  9991
2 54694  97.6831   9.8255 0005872  42.8279 317.3421 15.38072269200126
JILIN-1 GAOFEN 03D48    
1 54695U 22167P   26198.30595644  .00006139  00000+0  17857-3 0  9998
2 54695  97.6903   9.1211 0006257  23.3091 336.8435 15.35819643200017
JILIN GAOFEN OBJECT A   
1 68691U 26080A   26197.65878194  .00002058  00000+0  13343-3 0  9990
2 68691  97.6611 273.1361 0011092 330.0407  30.0185 15.09207006 14108
JILIN GAOFEN OBJECT B   
1 68692U 26080B   26198.23791260  .00002415  00000+0  15688-3 0  9995
2 68692  97.6585 273.7264 0015696 305.8074  54.1695 15.08909956 14195
JILIN GAOFEN OBJECT C   
1 68693U 26080C   26197.52517554  .00002068  00000+0  13505-3 0  9999
2 68693  97.6595 272.9856 0013203 310.6516  49.3564 15.08905559 14086
JILIN GAOFEN OBJECT D   
1 68694U 26080D   26198.30497426  .00002444  00000+0  15842-3 0  9996
2 68694  97.6648 273.8691 0016370 317.5185  42.4775 15.08969375 14184
JILIN GAOFEN OBJECT E   
1 68695U 26080E   26198.28671679  .00002768  00000+0  17921-3 0  9997
2 68695  97.6632 273.8706 0013704 328.2762  31.7640 15.08931585 14165
JILIN GAOFEN OBJECT F   
1 68696U 26080F   26198.28576029  .00002659  00000+0  17245-3 0  9999
2 68696  97.6604 273.8372 0012373 331.1501  28.9042 15.08915375 14162
JILIN GAOFEN OBJECT G   
1 68697U 26080G   26198.33816439  .00002412  00000+0  15674-3 0  9999
2 68697  97.6651 273.9751 0014492 327.5461  32.4875 15.08908829 14176
JILIN GAOFEN OBJECT H   
1 68698U 26080H   26197.60665017  .00002409  00000+0  15644-3 0  9996
2 68698  97.6646 273.2350 0014947 332.1698  27.8729 15.08933633 14063
